IRIDIUM 119             
1 42959U 17061E   24142.90570397  .00000656  00000+0  22724-3 0  9993
2 42959  86.3966 341.3071 0002005  82.4627 277.6797 14.34225242346416
IRIDIUM 107             
1 42960U 17061F   24143.06427921  .00000641  00000+0  22175-3 0  9991
2 42960  86.3966 341.2574 0001897  85.7535 274.3878 14.34224250346453
IRIDIUM 132             
1 42961U 17061G   24142.93109057  .00000647  00000+0  22377-3 0  9994
2 42961  86.3968 341.2981 0001759  89.1498 270.9899 14.34222331346421
IRIDIUM 136             
1 42962U 17061H   24142.61395491  .00000511  00000+0  17549-3 0  9994
2 42962  86.3968 341.4342 0002210  78.3568 281.7875 14.34215841346394
IRIDIUM 139             
1 42963U 17061J   24142.62028201  .00000511  00000+0  17530-3 0  9998
2 42963  86.3968 341.4809 0001741  87.6299 272.5096 14.34222919346404
IRIDIUM 125             
1 42964U 17061K   24143.09597477  .00000523  00000+0  17982-3 0  9991
2 42964  86.3963 341.3243 0002548  69.6868 290.4602 14.34226516346486
IRIDIUM 135             
1 43070U 17083A   24142.93059161  .00000071  00000+0  18413-4 0  9998
2 43070  86.3941 278.0459 0002345 101.8958 258.2501 14.34211813335752
IRIDIUM 138             
1 43071U 17083B   24142.88617145  .00000037  00000+0  60300-5 0  9990
2 43071  86.3930 277.7851 0002078  85.4579 274.6855 14.34222273335736
